[{"OBJECT_NAME":"ONEWEB-0323","OBJECT_ID":"2021-075AH","EPOCH":"2026-03-16T04:24:51.143328","MEAN_MOTION":13.12443238,"ECCENTRICITY":0.00015451,"INCLINATION":87.9012,"RA_OF_ASC_NODE":9.1076,"ARG_OF_PERICENTER":57.0757,"MEAN_ANOMALY":303.052,"EPHEMERIS_TYPE":0,"CLASSIFICATION_TYPE":"U","NORAD_CAT_ID":49106,"ELEMENT_SET_NO":999,"REV_AT_EPOCH":22235,"BSTAR":0.0013011375,"MEAN_MOTION_DOT":4.81e-6,"MEAN_MOTION_DDOT":0},{"OBJECT_NAME":"ONEWEB-0329","OBJECT_ID":"2021-075AJ","EPOCH":"2026-03-16T02:01:06.891456","MEAN_MOTION":13.17648881,"ECCENTRICITY":0.00018961,"INCLINATION":87.916,"RA_OF_ASC_NODE":24.3565,"ARG_OF_PERICENTER":74.5218,"MEAN_ANOMALY":285.6123,"EPHEMERIS_TYPE":0,"CLASSIFICATION_TYPE":"U","NORAD_CAT_ID":49107,"ELEMENT_SET_NO":999,"REV_AT_EPOCH":22132,"BSTAR":-0.00017196176,"MEAN_MOTION_DOT":-5.4e-7,"MEAN_MOTION_DDOT":0},{"OBJECT_NAME":"ONEWEB-0330","OBJECT_ID":"2021-075AK","EPOCH":"2026-03-16T02:14:51.055872","MEAN_MOTION":13.16079568,"ECCENTRICITY":0.00020823,"INCLINATION":87.9163,"RA_OF_ASC_NODE":24.3663,"ARG_OF_PERICENTER":74.611,"MEAN_ANOMALY":285.525,"EPHEMERIS_TYPE":0,"CLASSIFICATION_TYPE":"U","NORAD_CAT_ID":49108,"ELEMENT_SET_NO":999,"REV_AT_EPOCH":22136,"BSTAR":8.3178462e-5,"MEAN_MOTION_DOT":4.4e-7,"MEAN_MOTION_DDOT":0},{"OBJECT_NAME":"ONEWEB-0292","OBJECT_ID":"2021-083A","EPOCH":"2026-03-16T03:39:52.997472","MEAN_MOTION":13.13471142,"ECCENTRICITY":0.00015673,"INCLINATION":87.9021,"RA_OF_ASC_NODE":338.7596,"ARG_OF_PERICENTER":75.9391,"MEAN_ANOMALY":284.1913,"EPHEMERIS_TYPE":0,"CLASSIFICATION_TYPE":"U","NORAD_CAT_ID":49186,"ELEMENT_SET_NO":999,"REV_AT_EPOCH":21871,"BSTAR":-0.001380936,"MEAN_MOTION_DOT":-4.92e-6,"MEAN_MOTION_DDOT":0},{"OBJECT_NAME":"ONEWEB-0303","OBJECT_ID":"2021-083B","EPOCH":"2026-03-16T04:53:08.941344","MEAN_MOTION":13.18686214,"ECCENTRICITY":0.00016725,"INCLINATION":87.9253,"RA_OF_ASC_NODE":353.929,"ARG_OF_PERICENTER":74.3668,"MEAN_ANOMALY":285.7649,"EPHEMERIS_TYPE":0,"CLASSIFICATION_TYPE":"U","NORAD_CAT_ID":49187,"ELEMENT_SET_NO":999,"REV_AT_EPOCH":21772,"BSTAR":1.6406199e-5,"MEAN_MOTION_DOT":1.9e-7,"MEAN_MOTION_DDOT":0},{"OBJECT_NAME":"ONEWEB-0306","OBJECT_ID":"2021-083C","EPOCH":"2026-03-16T04:38:53.788704","MEAN_MOTION":13.18686242,"ECCENTRICITY":0.00020414,"INCLINATION":87.9255,"RA_OF_ASC_NODE":353.9143,"ARG_OF_PERICENTER":81.7011,"MEAN_ANOMALY":278.4353,"EPHEMERIS_TYPE":0,"CLASSIFICATION_TYPE":"U","NORAD_CAT_ID":49188,"ELEMENT_SET_NO":999,"REV_AT_EPOCH":21776,"BSTAR":0.00022780804,"MEAN_MOTION_DOT":1.03e-6,"MEAN_MOTION_DDOT":0},{"OBJECT_NAME":"ONEWEB-0307","OBJECT_ID":"2021-083D","EPOCH":"2026-03-16T03:31:22.600704","MEAN_MOTION":13.13470456,"ECCENTRICITY":0.00017417,"INCLINATION":87.902,"RA_OF_ASC_NODE":338.7496,"ARG_OF_PERICENTER":77.8892,"MEAN_ANOMALY":282.2433,"EPHEMERIS_TYPE":0,"CLASSIFICATION_TYPE":"U","NORAD_CAT_ID":49189,"ELEMENT_SET_NO":999,"REV_AT_EPOCH":21871,"BSTAR":-0.00066557051,"MEAN_MOTION_DOT":-2.3e-6,"MEAN_MOTION_DDOT":0},{"OBJECT_NAME":"ONEWEB-0320","OBJECT_ID":"2021-083E","EPOCH":"2026-03-16T03:14:06.097920","MEAN_MOTION":13.18133621,"ECCENTRICITY":0.00018356,"INCLINATION":87.9242,"RA_OF_ASC_NODE":353.9523,"ARG_OF_PERICENTER":77.449,"MEAN_ANOMALY":282.6847,"EPHEMERIS_TYPE":0,"CLASSIFICATION_TYPE":"U","NORAD_CAT_ID":49190,"ELEMENT_SET_NO":999,"REV_AT_EPOCH":21771,"BSTAR":-0.00024783401,"MEAN_MOTION_DOT":-8.4e-7,"MEAN_MOTION_DDOT":0},{"OBJECT_NAME":"ONEWEB-0321","OBJECT_ID":"2021-083F","EPOCH":"2026-03-16T02:17:59.589312","MEAN_MOTION":13.20770586,"ECCENTRICITY":0.00019868,"INCLINATION":87.9163,"RA_OF_ASC_NODE":293.0238,"ARG_OF_PERICENTER":90.1534,"MEAN_ANOMALY":269.9827,"EPHEMERIS_TYPE":0,"CLASSIFICATION_TYPE":"U","NORAD_CAT_ID":49191,"ELEMENT_SET_NO":999,"REV_AT_EPOCH":22454,"BSTAR":0.00012602521,"MEAN_MOTION_DOT":6.4e-7,"MEAN_MOTION_DDOT":0},{"OBJECT_NAME":"ONEWEB-0322","OBJECT_ID":"2021-083G","EPOCH":"2026-03-16T03:25:16.510944","MEAN_MOTION":13.13471293,"ECCENTRICITY":0.00019703,"INCLINATION":87.9024,"RA_OF_ASC_NODE":338.7552,"ARG_OF_PERICENTER":92.3977,"MEAN_ANOMALY":267.7377,"EPHEMERIS_TYPE":0,"CLASSIFICATION_TYPE":"U","NORAD_CAT_ID":49192,"ELEMENT_SET_NO":999,"REV_AT_EPOCH":21870,"BSTAR":-0.00069939072,"MEAN_MOTION_DOT":-2.43e-6,"MEAN_MOTION_DDOT":0},{"OBJECT_NAME":"ONEWEB-0324","OBJECT_ID":"2021-083H","EPOCH":"2026-03-16T04:29:23.834688","MEAN_MOTION":13.18686655,"ECCENTRICITY":0.00019342,"INCLINATION":87.9253,"RA_OF_ASC_NODE":353.9214,"ARG_OF_PERICENTER":75.1986,"MEAN_ANOMALY":284.936,"EPHEMERIS_TYPE":0,"CLASSIFICATION_TYPE":"U","NORAD_CAT_ID":49193,"ELEMENT_SET_NO":999,"REV_AT_EPOCH":21774,"BSTAR":0.00013199288,"MEAN_MOTION_DOT":6.5e-7,"MEAN_MOTION_DDOT":0},{"OBJECT_NAME":"ONEWEB-0325","OBJECT_ID":"2021-083J","EPOCH":"2026-03-16T04:34:09.190560","MEAN_MOTION":13.18687195,"ECCENTRICITY":0.0001782,"INCLINATION":87.9245,"RA_OF_ASC_NODE":353.9374,"ARG_OF_PERICENTER":80.123,"MEAN_ANOMALY":280.0103,"EPHEMERIS_TYPE":0,"CLASSIFICATION_TYPE":"U","NORAD_CAT_ID":49194,"ELEMENT_SET_NO":999,"REV_AT_EPOCH":21775,"BSTAR":7.2625688e-5,"MEAN_MOTION_DOT":4.2e-7,"MEAN_MOTION_DDOT":0},{"OBJECT_NAME":"ONEWEB-0326","OBJECT_ID":"2021-083K","EPOCH":"2026-03-16T04:55:43.015872","MEAN_MOTION":13.18686299,"ECCENTRICITY":0.0001534,"INCLINATION":87.9251,"RA_OF_ASC_NODE":353.9242,"ARG_OF_PERICENTER":74.463,"MEAN_ANOMALY":285.6672,"EPHEMERIS_TYPE":0,"CLASSIFICATION_TYPE":"U","NORAD_CAT_ID":49195,"ELEMENT_SET_NO":999,"REV_AT_EPOCH":21774,"BSTAR":-0.0001311873,"MEAN_MOTION_DOT":-3.9e-7,"MEAN_MOTION_DDOT":0},{"OBJECT_NAME":"ONEWEB-0327","OBJECT_ID":"2021-083L","EPOCH":"2026-03-16T04:55:18.419520","MEAN_MOTION":13.18685373,"ECCENTRICITY":0.00013758,"INCLINATION":87.9243,"RA_OF_ASC_NODE":353.9363,"ARG_OF_PERICENTER":77.8073,"MEAN_ANOMALY":282.3213,"EPHEMERIS_TYPE":0,"CLASSIFICATION_TYPE":"U","NORAD_CAT_ID":49196,"ELEMENT_SET_NO":999,"REV_AT_EPOCH":21776,"BSTAR":0.00019606154,"MEAN_MOTION_DOT":9.0e-7,"MEAN_MOTION_DDOT":0},{"OBJECT_NAME":"ONEWEB-0328","OBJECT_ID":"2021-083M","EPOCH":"2026-03-16T03:10:38.938368","MEAN_MOTION":13.13470596,"ECCENTRICITY":0.00018207,"INCLINATION":87.904,"RA_OF_ASC_NODE":338.7183,"ARG_OF_PERICENTER":74.4624,"MEAN_ANOMALY":285.6706,"EPHEMERIS_TYPE":0,"CLASSIFICATION_TYPE":"U","NORAD_CAT_ID":49197,"ELEMENT_SET_NO":999,"REV_AT_EPOCH":21868,"BSTAR":-0.00084407063,"MEAN_MOTION_DOT":-2.95e-6,"MEAN_MOTION_DDOT":0},{"OBJECT_NAME":"ONEWEB-0331","OBJECT_ID":"2021-083N","EPOCH":"2026-03-16T04:46:01.577568","MEAN_MOTION":13.18686726,"ECCENTRICITY":0.00016535,"INCLINATION":87.9254,"RA_OF_ASC_NODE":353.9191,"ARG_OF_PERICENTER":68.9715,"MEAN_ANOMALY":291.1594,"EPHEMERIS_TYPE":0,"CLASSIFICATION_TYPE":"U","NORAD_CAT_ID":49198,"ELEMENT_SET_NO":999,"REV_AT_EPOCH":21775,"BSTAR":-6.9008303e-5,"MEAN_MOTION_DOT":-1.4e-7,"MEAN_MOTION_DDOT":0}]
