ONEWEB-0323             
1 49106U 21075AH  26075.18392527  .00000481  00000+0  13011-2 0  9992
2 49106  87.9012   9.1076 0001545  57.0757 303.0520 13.12443238222356
ONEWEB-0329             
1 49107U 21075AJ  26075.08410754 -.00000054  00000+0 -17196-3 0  9992
2 49107  87.9160  24.3565 0001896  74.5218 285.6123 13.17648881221324
ONEWEB-0330             
1 49108U 21075AK  26075.09364648  .00000044  00000+0  83178-4 0  9995
2 49108  87.9163  24.3663 0002082  74.6110 285.5250 13.16079568221360
ONEWEB-0292             
1 49186U 21083A   26075.15269673 -.00000492  00000+0 -13809-2 0  9990
2 49186  87.9021 338.7596 0001567  75.9391 284.1913 13.13471142218715
ONEWEB-0303             
1 49187U 21083B   26075.20357571  .00000019  00000+0  16406-4 0  9993
2 49187  87.9253 353.9290 0001672  74.3668 285.7649 13.18686214217726
ONEWEB-0306             
1 49188U 21083C   26075.19367811  .00000103  00000+0  22781-3 0  9996
2 49188  87.9255 353.9143 0002041  81.7011 278.4353 13.18686242217767
ONEWEB-0307             
1 49189U 21083D   26075.14678936 -.00000230  00000+0 -66557-3 0  9997
2 49189  87.9020 338.7496 0001741  77.8892 282.2433 13.13470456218710
ONEWEB-0320             
1 49190U 21083E   26075.13479280 -.00000084  00000+0 -24783-3 0  9991
2 49190  87.9242 353.9523 0001835  77.4490 282.6847 13.18133621217719
ONEWEB-0321             
1 49191U 21083F   26075.09582858  .00000064  00000+0  12603-3 0  9997
2 49191  87.9163 293.0238 0001986  90.1534 269.9827 13.20770586224542
ONEWEB-0322             
1 49192U 21083G   26075.14255221 -.00000243  00000+0 -69939-3 0  9990
2 49192  87.9024 338.7552 0001970  92.3977 267.7377 13.13471293218705
ONEWEB-0324             
1 49193U 21083H   26075.18708142  .00000065  00000+0  13199-3 0  9997
2 49193  87.9253 353.9214 0001934  75.1986 284.9360 13.18686655217744
ONEWEB-0325             
1 49194U 21083J   26075.19038415  .00000042  00000+0  72626-4 0  9994
2 49194  87.9245 353.9374 0001782  80.1230 280.0103 13.18687195217755
ONEWEB-0326             
1 49195U 21083K   26075.20535898 -.00000039  00000+0 -13119-3 0  9993
2 49195  87.9251 353.9242 0001534  74.4630 285.6672 13.18686299217747
ONEWEB-0327             
1 49196U 21083L   26075.20507430  .00000090  00000+0  19606-3 0  9997
2 49196  87.9243 353.9363 0001375  77.8073 282.3213 13.18685373217763
ONEWEB-0328             
1 49197U 21083M   26075.13239512 -.00000295  00000+0 -84407-3 0  9993
2 49197  87.9040 338.7183 0001820  74.4624 285.6706 13.13470596218689
ONEWEB-0331             
1 49198U 21083N   26075.19862937 -.00000014  00000+0 -69008-4 0  9993
2 49198  87.9254 353.9191 0001653  68.9715 291.1594 13.18686726217751
